LANDSAT 8               
1 39084U 13008A   26061.79350252  .00000479  00000+0  11638-3 0  9995
2 39084  98.1932 133.6318 0001228  90.3483 269.7856 14.57123441682408
SARAL                   
1 39086U 13009A   26061.75757653  .00000159  00000+0  74366-4 0  9993
2 39086  98.5551 249.6604 0001087 204.6164 155.4968 14.32825611680365
GAOFEN-1                
1 39150U 13018A   26061.87138969  .00000346  00000+0  56946-4 0  9993
2 39150  97.9196 136.0595 0016076 248.0455 111.9047 14.76530855692552
VNREDSAT 1              
1 39160U 13021B   26061.80650047  .00000772  00000+0  15234-3 0  9994
2 39160  97.9237 119.2287 0001601  89.2285 270.9102 14.65061326684711
ARIRANG-5 (KOMPSAT-5)   
1 39227U 13042A   26061.81922756  .00002019  00000+0  14845-3 0  9994
2 39227  97.6179 249.9980 0003886 128.6031 231.5544 15.04532565687866
SKYSAT-A                
1 39418U 13066C   26061.68814873  .00004664  00000+0  27182-3 0  9993
2 39418  97.3969 114.4489 0020675 326.0818  33.9089 15.12289691672381
DUBAISAT-2              
1 39419U 13066D   26061.82833919  .00004915  00000+0  31193-3 0  9998
2 39419  97.4520  54.8534 0012991  46.0288 314.2010 15.09265060670349
GPM-CORE                
1 39574U 14009C   26061.78252946  .00014689  00000+0  31828-3 0  9992
2 39574  64.9741 304.6229 0012444 264.2311  95.7411 15.44569598681379
SENTINEL-1A             
1 39634U 14016A   26061.87608892  .00000056  00000+0  21667-4 0  9996
2 39634  98.1814  70.9442 0001338  84.2453 275.8900 14.59199604634513
KAZEOSAT 1              
1 39731U 14024A   26061.86155344  .00000179  00000+0  67633-4 0  9990
2 39731  98.3304 136.9197 0001083  79.0692 281.0619 14.42030811623230
ALOS-2                  
1 39766U 14029A   26061.82034516  .00001942  00000+0  26684-3 0  9995
2 39766  97.9199 160.5171 0001425 100.1262 260.0110 14.79469332635857
KAZEOSAT 2              
1 40010U 14033A   26061.79589748  .00001560  00000+0  18730-3 0  9991
2 40010  97.5490 266.9754 0007637 319.4644  40.6002 14.85325335633164
HODOYOSHI-4             
1 40011U 14033B   26061.85193427  .00001534  00000+0  17294-3 0  9999
2 40011  97.5443 251.8158 0022656 300.3106  59.5870 14.87811424632997
DEIMOS-2                
1 40013U 14033D   26061.86140897  .00002547  00000+0  24798-3 0  9997
2 40013  97.5993 300.0097 0001232  51.8866 308.2465 14.93372288621850
HODOYOSHI-3             
1 40015U 14033F   26061.47144297  .00001544  00000+0  18500-3 0  9994
2 40015  97.6289 228.8896 0032631 348.5159  11.5309 14.85112319631785
SPOT 7                  
1 40053U 14034A   26061.81452867  .00000449  00000+0  10120-3 0  9993
2 40053  98.0767 126.9961 0001275 100.3396 259.7949 14.60850765621604
SKYSAT-B                
1 40072U 14037D   26061.80195417  .00002459  00000+0  27660-3 0  9991
2 40072  98.3716  14.8050 0004178 263.0279  97.0460 14.87691447630147
