[{"OBJECT_NAME":"LANDSAT 8","OBJECT_ID":"2013-008A","EPOCH":"2026-03-02T19:02:38.617728","MEAN_MOTION":14.57123441,"ECCENTRICITY":0.0001228,"INCLINATION":98.1932,"RA_OF_ASC_NODE":133.6318,"ARG_OF_PERICENTER":90.3483,"MEAN_ANOMALY":269.7856,"EPHEMERIS_TYPE":0,"CLASSIFICATION_TYPE":"U","NORAD_CAT_ID":39084,"ELEMENT_SET_NO":999,"REV_AT_EPOCH":68240,"BSTAR":0.00011638,"MEAN_MOTION_DOT":4.79e-6,"MEAN_MOTION_DDOT":0},{"OBJECT_NAME":"SARAL","OBJECT_ID":"2013-009A","EPOCH":"2026-03-02T18:10:54.612192","MEAN_MOTION":14.32825611,"ECCENTRICITY":0.0001087,"INCLINATION":98.5551,"RA_OF_ASC_NODE":249.6604,"ARG_OF_PERICENTER":204.6164,"MEAN_ANOMALY":155.4968,"EPHEMERIS_TYPE":0,"CLASSIFICATION_TYPE":"U","NORAD_CAT_ID":39086,"ELEMENT_SET_NO":999,"REV_AT_EPOCH":68036,"BSTAR":7.4366e-5,"MEAN_MOTION_DOT":1.59e-6,"MEAN_MOTION_DDOT":0},{"OBJECT_NAME":"GAOFEN-1","OBJECT_ID":"2013-018A","EPOCH":"2026-03-02T20:54:48.069216","MEAN_MOTION":14.76530855,"ECCENTRICITY":0.0016076,"INCLINATION":97.9196,"RA_OF_ASC_NODE":136.0595,"ARG_OF_PERICENTER":248.0455,"MEAN_ANOMALY":111.9047,"EPHEMERIS_TYPE":0,"CLASSIFICATION_TYPE":"U","NORAD_CAT_ID":39150,"ELEMENT_SET_NO":999,"REV_AT_EPOCH":69255,"BSTAR":5.6946e-5,"MEAN_MOTION_DOT":3.46e-6,"MEAN_MOTION_DDOT":0},{"OBJECT_NAME":"VNREDSAT 1","OBJECT_ID":"2013-021B","EPOCH":"2026-03-02T19:21:21.640608","MEAN_MOTION":14.65061326,"ECCENTRICITY":0.0001601,"INCLINATION":97.9237,"RA_OF_ASC_NODE":119.2287,"ARG_OF_PERICENTER":89.2285,"MEAN_ANOMALY":270.9102,"EPHEMERIS_TYPE":0,"CLASSIFICATION_TYPE":"U","NORAD_CAT_ID":39160,"ELEMENT_SET_NO":999,"REV_AT_EPOCH":68471,"BSTAR":0.00015234,"MEAN_MOTION_DOT":7.72e-6,"MEAN_MOTION_DDOT":0},{"OBJECT_NAME":"ARIRANG-5 (KOMPSAT-5)","OBJECT_ID":"2013-042A","EPOCH":"2026-03-02T19:39:41.261184","MEAN_MOTION":15.04532565,"ECCENTRICITY":0.0003886,"INCLINATION":97.6179,"RA_OF_ASC_NODE":249.998,"ARG_OF_PERICENTER":128.6031,"MEAN_ANOMALY":231.5544,"EPHEMERIS_TYPE":0,"CLASSIFICATION_TYPE":"U","NORAD_CAT_ID":39227,"ELEMENT_SET_NO":999,"REV_AT_EPOCH":68786,"BSTAR":0.00014845,"MEAN_MOTION_DOT":2.019e-5,"MEAN_MOTION_DDOT":0},{"OBJECT_NAME":"SKYSAT-A","OBJECT_ID":"2013-066C","EPOCH":"2026-03-02T16:30:56.050272","MEAN_MOTION":15.12289691,"ECCENTRICITY":0.0020675,"INCLINATION":97.3969,"RA_OF_ASC_NODE":114.4489,"ARG_OF_PERICENTER":326.0818,"MEAN_ANOMALY":33.9089,"EPHEMERIS_TYPE":0,"CLASSIFICATION_TYPE":"U","NORAD_CAT_ID":39418,"ELEMENT_SET_NO":999,"REV_AT_EPOCH":67238,"BSTAR":0.00027182,"MEAN_MOTION_DOT":4.664e-5,"MEAN_MOTION_DDOT":0},{"OBJECT_NAME":"DUBAISAT-2","OBJECT_ID":"2013-066D","EPOCH":"2026-03-02T19:52:48.506016","MEAN_MOTION":15.0926506,"ECCENTRICITY":0.0012991,"INCLINATION":97.452,"RA_OF_ASC_NODE":54.8534,"ARG_OF_PERICENTER":46.0288,"MEAN_ANOMALY":314.201,"EPHEMERIS_TYPE":0,"CLASSIFICATION_TYPE":"U","NORAD_CAT_ID":39419,"ELEMENT_SET_NO":999,"REV_AT_EPOCH":67034,"BSTAR":0.00031193,"MEAN_MOTION_DOT":4.915e-5,"MEAN_MOTION_DDOT":0},{"OBJECT_NAME":"GPM-CORE","OBJECT_ID":"2014-009C","EPOCH":"2026-03-02T18:46:50.545344","MEAN_MOTION":15.44569598,"ECCENTRICITY":0.0012444,"INCLINATION":64.9741,"RA_OF_ASC_NODE":304.6229,"ARG_OF_PERICENTER":264.2311,"MEAN_ANOMALY":95.7411,"EPHEMERIS_TYPE":0,"CLASSIFICATION_TYPE":"U","NORAD_CAT_ID":39574,"ELEMENT_SET_NO":999,"REV_AT_EPOCH":68137,"BSTAR":0.00031828,"MEAN_MOTION_DOT":0.00014689,"MEAN_MOTION_DDOT":0},{"OBJECT_NAME":"SENTINEL-1A","OBJECT_ID":"2014-016A","EPOCH":"2026-03-02T21:01:34.082688","MEAN_MOTION":14.59199604,"ECCENTRICITY":0.0001338,"INCLINATION":98.1814,"RA_OF_ASC_NODE":70.9442,"ARG_OF_PERICENTER":84.2453,"MEAN_ANOMALY":275.89,"EPHEMERIS_TYPE":0,"CLASSIFICATION_TYPE":"U","NORAD_CAT_ID":39634,"ELEMENT_SET_NO":999,"REV_AT_EPOCH":63451,"BSTAR":2.1667e-5,"MEAN_MOTION_DOT":5.6e-7,"MEAN_MOTION_DDOT":0},{"OBJECT_NAME":"KAZEOSAT 1","OBJECT_ID":"2014-024A","EPOCH":"2026-03-02T20:40:38.217216","MEAN_MOTION":14.42030811,"ECCENTRICITY":0.0001083,"INCLINATION":98.3304,"RA_OF_ASC_NODE":136.9197,"ARG_OF_PERICENTER":79.0692,"MEAN_ANOMALY":281.0619,"EPHEMERIS_TYPE":0,"CLASSIFICATION_TYPE":"U","NORAD_CAT_ID":39731,"ELEMENT_SET_NO":999,"REV_AT_EPOCH":62323,"BSTAR":6.7633e-5,"MEAN_MOTION_DOT":1.79e-6,"MEAN_MOTION_DDOT":0},{"OBJECT_NAME":"ALOS-2","OBJECT_ID":"2014-029A","EPOCH":"2026-03-02T19:41:17.821824","MEAN_MOTION":14.79469332,"ECCENTRICITY":0.0001425,"INCLINATION":97.9199,"RA_OF_ASC_NODE":160.5171,"ARG_OF_PERICENTER":100.1262,"MEAN_ANOMALY":260.011,"EPHEMERIS_TYPE":0,"CLASSIFICATION_TYPE":"U","NORAD_CAT_ID":39766,"ELEMENT_SET_NO":999,"REV_AT_EPOCH":63585,"BSTAR":0.00026684,"MEAN_MOTION_DOT":1.942e-5,"MEAN_MOTION_DDOT":0},{"OBJECT_NAME":"KAZEOSAT 2","OBJECT_ID":"2014-033A","EPOCH":"2026-03-02T19:06:05.542272","MEAN_MOTION":14.85325335,"ECCENTRICITY":0.0007637,"INCLINATION":97.549,"RA_OF_ASC_NODE":266.9754,"ARG_OF_PERICENTER":319.4644,"MEAN_ANOMALY":40.6002,"EPHEMERIS_TYPE":0,"CLASSIFICATION_TYPE":"U","NORAD_CAT_ID":40010,"ELEMENT_SET_NO":999,"REV_AT_EPOCH":63316,"BSTAR":0.0001873,"MEAN_MOTION_DOT":1.56e-5,"MEAN_MOTION_DDOT":0},{"OBJECT_NAME":"HODOYOSHI-4","OBJECT_ID":"2014-033B","EPOCH":"2026-03-02T20:26:47.120928","MEAN_MOTION":14.87811424,"ECCENTRICITY":0.0022656,"INCLINATION":97.5443,"RA_OF_ASC_NODE":251.8158,"ARG_OF_PERICENTER":300.3106,"MEAN_ANOMALY":59.587,"EPHEMERIS_TYPE":0,"CLASSIFICATION_TYPE":"U","NORAD_CAT_ID":40011,"ELEMENT_SET_NO":999,"REV_AT_EPOCH":63299,"BSTAR":0.00017294,"MEAN_MOTION_DOT":1.534e-5,"MEAN_MOTION_DDOT":0},{"OBJECT_NAME":"DEIMOS-2","OBJECT_ID":"2014-033D","EPOCH":"2026-03-02T20:40:25.735008","MEAN_MOTION":14.93372288,"ECCENTRICITY":0.0001232,"INCLINATION":97.5993,"RA_OF_ASC_NODE":300.0097,"ARG_OF_PERICENTER":51.8866,"MEAN_ANOMALY":308.2465,"EPHEMERIS_TYPE":0,"CLASSIFICATION_TYPE":"U","NORAD_CAT_ID":40013,"ELEMENT_SET_NO":999,"REV_AT_EPOCH":62185,"BSTAR":0.00024798,"MEAN_MOTION_DOT":2.547e-5,"MEAN_MOTION_DDOT":0},{"OBJECT_NAME":"HODOYOSHI-3","OBJECT_ID":"2014-033F","EPOCH":"2026-03-02T11:18:52.672608","MEAN_MOTION":14.85112319,"ECCENTRICITY":0.00326315,"INCLINATION":97.6289,"RA_OF_ASC_NODE":228.8896,"ARG_OF_PERICENTER":348.5159,"MEAN_ANOMALY":11.5309,"EPHEMERIS_TYPE":0,"CLASSIFICATION_TYPE":"U","NORAD_CAT_ID":40015,"ELEMENT_SET_NO":999,"REV_AT_EPOCH":63178,"BSTAR":0.00018499599,"MEAN_MOTION_DOT":1.544e-5,"MEAN_MOTION_DDOT":0},{"OBJECT_NAME":"SPOT 7","OBJECT_ID":"2014-034A","EPOCH":"2026-03-02T19:32:55.277088","MEAN_MOTION":14.60850765,"ECCENTRICITY":0.0001275,"INCLINATION":98.0767,"RA_OF_ASC_NODE":126.9961,"ARG_OF_PERICENTER":100.3396,"MEAN_ANOMALY":259.7949,"EPHEMERIS_TYPE":0,"CLASSIFICATION_TYPE":"U","NORAD_CAT_ID":40053,"ELEMENT_SET_NO":999,"REV_AT_EPOCH":62160,"BSTAR":0.0001012,"MEAN_MOTION_DOT":4.49e-6,"MEAN_MOTION_DDOT":0},{"OBJECT_NAME":"SKYSAT-B","OBJECT_ID":"2014-037D","EPOCH":"2026-03-02T19:14:48.840288","MEAN_MOTION":14.87691447,"ECCENTRICITY":0.0004178,"INCLINATION":98.3716,"RA_OF_ASC_NODE":14.805,"ARG_OF_PERICENTER":263.0279,"MEAN_ANOMALY":97.046,"EPHEMERIS_TYPE":0,"CLASSIFICATION_TYPE":"U","NORAD_CAT_ID":40072,"ELEMENT_SET_NO":999,"REV_AT_EPOCH":63014,"BSTAR":0.0002766,"MEAN_MOTION_DOT":2.459e-5,"MEAN_MOTION_DDOT":0}]
